EUTELSAT 8 WEST B       
1 40875U 15039B   25263.72150122 -.00000079  00000+0  00000+0 0  9995
2 40875   0.0730  18.7853 0003752 163.2160  69.6170  1.00272568 36957
EUTELSAT 9B             
1 41310U 16005A   25263.90947641  .00000048  00000+0  00000+0 0  9999
2 41310   0.0470  63.8856 0002386 156.7419 115.8158  1.00270924 35417
EUTELSAT 65 WEST A      
1 41382U 16014A   25263.42466181 -.00000291  00000+0  00000+0 0  9991
2 41382   0.0861  49.1794 0002149 135.1091 262.9681  1.00271162 34837
EUTELSAT 117 WEST B     
1 41589U 16038B   25263.05752170 -.00000028  00000+0  00000+0 0  9999
2 41589   0.0430 358.0340 0000169  76.8474 188.0384  1.00272122 33950
EUTELSAT 172B           
1 42741U 17029B   25263.68579438 -.00000020  00000+0  00000+0 0  9996
2 42741   0.0162 172.8482 0000173 234.7757  11.0810  1.00271250 31022
EUTELSAT 7C             
1 44334U 19034B   25263.36746921  .00000033  00000+0  00000+0 0  9995
2 44334   0.0732 186.5008 0003235 340.8077 331.4818  1.00272993  4131
EUTELSAT 5 WEST B       
1 44624U 19067A   25263.72202122 -.00000056  00000+0  00000+0 0  9999
2 44624   0.0740 333.6998 0003112 211.1935  69.8867  1.00272297 21730
EUTELSAT KONNECT        
1 45027U 20005B   25262.94211480  .00000033  00000+0  00000+0 0  9995
2 45027   0.0640 100.2652 0002122  70.5141 174.6638  1.00273789 21613
